SOKRAT                  
1 44404U 19038U   22202.84536874  .00010212  00000+0  50693-3 0  9991
2 44404  97.6357 172.5535 0020134  21.1576 339.0485 15.17713430168239
LUCKY-7                 
1 44406U 19038W   22202.85082687  .00007040  00000+0  36883-3 0  9992
2 44406  97.6398 172.0593 0023015  16.7622 343.4366 15.15887097168177
D-STAR ONE (EXOCONNECT) 
1 44410U 19038AA  22202.88189187  .00016597  00000+0  75563-3 0  9998
2 44410  97.6306 173.5786 0018675  16.3339 343.8494 15.20614750168321
NARSSCUBE-2             
1 44415U 19022E   22202.82888242  .00009280  00000+0  27706-3 0  9995
2 44415  51.6410 311.2296 0010428 179.3473 180.7525 15.35284560165391
DUCHIFAT-3              
1 44854U 19089C   22202.82803712  .00003699  00000+0  28807-3 0  9995
2 44854  36.9658 256.5306 0007104 142.0075 218.1173 15.01283089143101
OPS-SAT                 
1 44878U 19092F   22202.48703348  .00008098  00000+0  37250-3 0  9991
2 44878  97.4810  26.1540 0011396 215.4672 144.5806 15.20548285143362
FLORIPASAT-1            
1 44885U 19093G   22202.81850438  .00002110  00000+0  26403-3 0  9997
2 44885  97.8971 282.9075 0015828  81.7046 278.5967 14.83255582139948
HUSKYSAT-1 (HO-107)     
1 45119U 19071J   22202.84585140  .00023279  00000+0  47723-3 0  9999
2 45119  51.6373 250.2555 0009408 303.1695  56.8389 15.45904182138683
BY70-2                  
1 45857U 20042B   22202.77171859  .00007122  00000+0  94250-3 0  9994
2 45857  97.9547 279.2905 0010374  16.3483 343.8104 14.80199612110530
SALSAT                  
1 46495U 20068K   22202.81261838  .00001720  00000+0  12651-3 0  9996
2 46495  97.7293 144.1287 0017074 155.6667 204.5369 15.04638138 99353
NETSAT-4                
1 46504U 20068U   22202.78379712  .00003853  00000+0  28610-3 0  9995
2 46504  97.7247 142.5128 0011134 207.6397 152.4238 15.03591623 99204
NETSAT-3                
1 46505U 20068V   22202.80006855  .00002308  00000+0  17357-3 0  9994
2 46505  97.7262 142.4484 0009416 214.4795 145.5821 15.03540520 99216
NETSAT-1                
1 46506U 20068W   22202.88423820  .00003004  00000+0  22481-3 0  9996
2 46506  97.7253 142.4580 0007627 219.8457 140.2207 15.03496252 99223
NETSAT-2                
1 46507U 20068X   22202.89422224  .00003040  00000+0  22758-3 0  9992
2 46507  97.7245 142.4582 0007308 227.3423 132.7163 15.03479077 99177
BY70-3                  
1 46839U 20079N   22202.88539853  .00025316  00000+0  56854-3 0  9992
2 46839  97.1967 274.5540 0005269 188.4035 261.3555 15.43336609 95550
UVSQ-SAT                
1 47438U 21006AB  22202.60596553  .00005434  00000+0  28542-3 0  9991
2 47438  97.4351 260.9179 0012809 150.1004 210.0963 15.16047156 82458
SOMP2B                  
1 47445U 21006AJ  22202.74363892  .00005935  00000+0  31442-3 0  9991
2 47445  97.4325 260.6899 0012401 153.2203 206.9672 15.15707502 82465
DIY-1 (ARDUIQUBE)       
1 47963U 21022AH  22202.45185840  .00015504  00000+0  84316-3 0  9998
2 47963  97.5290 103.4309 0017487  22.5963 337.6034 15.14428229 72099
